STARLINK-37321          
1 69198U 26114S   26157.25002315  .00038762  00000+0  19926-3 0  9991
2 69198  53.1587 256.9263 0000607 124.7492 242.6688 15.80848936  3055
STARLINK-37406          
1 69199U 26114T   26157.25002315  .00076851  00000+0  39001-3 0  9999
2 69199  53.1588 256.9175 0000764  91.0086 280.6938 15.80841777  3054
STARLINK-37761          
1 69200U 26114U   26157.25002315 -.00050382  00000+0 -25300-3 0  9992
2 69200  53.1586 256.9084 0001199  96.8571 279.0977 15.80890328  3050
STARLINK-37754          
1 69201U 26114V   26157.25002315 -.00001601  00000+0 -45782-5 0  9991
2 69201  53.1619 256.8975 0000595  98.3365 283.0101 15.80864865  3054
STARLINK-37649          
1 69202U 26114W   26157.25002315  .00012538  00000+0  67003-4 0  9990
2 69202  53.1620 256.8912 0000691 113.6239 270.8736 15.80861032  3057
STARLINK-37604          
1 69203U 26114X   26157.25002315 -.00018791  00000+0 -91902-4 0  9995
2 69203  53.1587 256.8824 0000666 123.7847 264.9868 15.80867280  3052
STARLINK-37669          
1 69204U 26114Y   26157.25002315  .00003842  00000+0  23008-4 0  9997
2 69204  53.1587 256.8734 0001185 115.8677 277.1737 15.80865262  3052
STARLINK-37691          
1 69205U 26114Z   26157.25002315  .00069626  00000+0  35419-3 0  9998
2 69205  53.1589 256.8463 0000881 108.9252 296.9425 15.80827746  3056
STARLINK-37671          
1 69206U 26114AA  26157.25002315  .00129757  00000+0  65260-3 0  9998
2 69206  53.1585 256.8556 0001121  97.2084 304.3833 15.80823286  3059
STARLINK-37647          
1 69207U 26114AB  26157.25002315 -.00030862  00000+0 -15340-3 0  9993
2 69207  53.1587 256.8643 0000902 108.0741 289.2381 15.80870501  3057
STARLINK-37562          
1 69208U 26114AC  26157.25002315  .00019253  00000+0  10095-3 0  9995
2 69208  53.1586 256.8375 0001012  92.1408 317.9928 15.80853729  3054
STARLINK-37682          
1 69209U 26114AD  26157.25002315  .00095612  00000+0  48388-3 0  9995
2 69209  53.1589 256.8282 0000654 118.5400 295.8741 15.80815973  3057
STARLINK-37402          
1 69210U 26114AE  26157.25002315  .00115962  00000+0  58493-3 0  9996
2 69210  53.1587 256.8195 0001015 103.3841 315.3047 15.80808655  3059
STARLINK-37613          
1 69211U 26115A   26157.25002315 -.02464787  00000+0 -15070-1 0  9996
2 69211  97.2841 174.1021 0000912  73.4512 100.3378 15.80655160  2935
STARLINK-37713          
1 69212U 26115B   26157.25002315 -.00106440  00000+0 -56110-3 0  9996
2 69212  97.2837 174.1037 0001342  60.5697 114.8741 15.80840684  2938
STARLINK-37716          
1 69213U 26115C   26157.25002315  .00002960  00000+0  16171-4 0  9991
2 69213  97.2841 174.1014 0001169  72.1068  99.0933 15.80840314  2934
STARLINK-37620          
1 69214U 26115D   26157.25002315 -.02395863  00000+0 -16081-1 0  9990
2 69214  97.2841 174.1034 0001531  90.7631  87.2030 15.78504606  2937
STARLINK-37700          
1 69215U 26115E   26157.25002315 -.02547913  00000+0 -26127-1 0  9998
2 69215  97.2849 174.0836 0001586  80.2471  51.0358 15.68318612  2932
STARLINK-37766          
1 69216U 26115F   26157.25002315 -.00131542  00000+0 -69535-3 0  9996
2 69216  97.2834 174.1086 0001159  76.0993 112.1615 15.80848681  2936
STARLINK-37763          
1 69217U 26115G   26157.25002315 -.00049543  00000+0 -25958-3 0  9997
2 69217  97.2835 174.1104 0001227 106.0126  85.8806 15.80798946  2933
STARLINK-37724          
1 69218U 26115H   26157.25002315 -.00026048  00000+0 -13580-3 0  9991
2 69218  97.2838 174.1122 0001351 115.8918  80.7560 15.80791937  2936
STARLINK-37758          
1 69219U 26115J   26157.25002315 -.00106609  00000+0 -56221-3 0  9993
2 69219  97.2834 174.1204 0000980  87.9580 126.9236 15.80833827  2933
STARLINK-37201          
1 69220U 26115K   26157.25002315 -.00137285  00000+0 -72602-3 0  9990
2 69220  97.2839 174.1172 0001216  81.0086 126.8399 15.80854239  2932
STARLINK-37728          
1 69221U 26115L   26157.25002315 -.00076860  00000+0 -40389-3 0  9999
2 69221  97.2837 174.1241 0001400  75.3990 146.2142 15.80824438  2933
STARLINK-37760          
1 69222U 26115M   26157.25002315 -.00027342  00000+0 -14260-3 0  9990
2 69222  97.2837 174.1168 0001184 111.4589  94.5811 15.80792830  2935
STARLINK-37759          
1 69223U 26115N   26157.25002315 -.00049338  00000+0 -25852-3 0  9999
2 69223  97.2833 174.1256 0001339 118.8414 106.8731 15.80796590  2935
STARLINK-37725          
1 69224U 26115P   26157.25002315 -.00098012  00000+0 -51618-3 0  9992
2 69224  97.2838 174.1235 0001052  84.4502 138.0028 15.80838768  2936
STARLINK-37770          
1 69225U 26115Q   26157.25002315 -.00248851  00000+0 -13270-2 0  9992
2 69225  97.2839 174.1225 0001776  92.2184 126.8429 15.80956528  2938
STARLINK-37736          
1 69226U 26115R   26157.25002315 -.00123637  00000+0 -65298-3 0  9995
2 69226  97.2836 174.1237 0000781  91.8414 131.2362 15.80847924  2930
STARLINK-37737          
1 69227U 26115S   26157.25002315 -.00142349  00000+0 -75308-3 0  9990
2 69227  97.2833 174.1279 0000989 108.0071 126.4118 15.80860337  2954
